STARLINK-36824          
1 67953U 26037X   26075.25003472 -.01899332  00000+0 -15130-1 0  9998
2 67953  42.9996 158.2345 0001363 270.4721  24.7933 15.73623156  4253
STARLINK-36869          
1 67954U 26037Y   26073.61314090  .00658621  00000+0  28843-2 0  9995
2 67954  42.9984 168.1671 0002026 272.4890  87.5750 15.82123317  4033
STARLINK-36872          
1 67955U 26037Z   26075.25308172  .00343980  00000+0  15620-2 0  9990
2 67955  42.9982 158.0942 0001884 321.2835  38.7902 15.82153467  4298
STARLINK-36918          
1 67956U 26037AA  26075.25233247  .00430334  00000+0  19350-2 0  9995
2 67956  42.9986 158.0885 0002548 230.6493 129.4153 15.82141616  4299
STARLINK-36829          
1 67957U 26037AB  26075.25409908 -.00432851  00000+0 -23362-2 0  9991
2 67957  42.9985 158.1036 0001589 235.5740 124.4981 15.80307409  4297
STARLINK-36799          
1 67958U 26037AC  26075.25158075  .00424679  00000+0  19074-2 0  9990
2 67958  42.9982 158.0825 0001131 285.0074  75.0673 15.82179175  4291
STARLINK-36834          
1 67959U 26037AD  26074.93437907  .00585215  00000+0  25521-2 0  9997
2 67959  42.9988 160.0045 0002347 235.3783 124.6868 15.82401295  4243
STARLINK-36841          
1 67960U 26037AE  26074.93518215  .00519298  00000+0  23062-2 0  9997
2 67960  42.9985 160.0104 0002536  26.2253 333.8747 15.82179874  4242
STARLINK-36912          
1 67961U 26038A   26075.27696907  .00109606  00000+0  72605-3 0  9998
2 67961  97.2856  85.9053 0002051  98.3693 261.7805 15.75197341  4224
STARLINK-36881          
1 67962U 26038B   26075.27590320  .00127004  00000+0  83762-3 0  9999
2 67962  97.2855  85.9067 0001188  78.7668 281.3731 15.75248927  4226
STARLINK-36357          
1 67963U 26038C   26075.27379518 -.00150650  00000+0 -10315-2 0  9992
2 67963  97.2860  85.9093 0001291  79.3440 280.7970 15.75091023  4223
STARLINK-36349          
1 67964U 26038D   26075.21166876  .00193529  00000+0  12641-2 0  9992
2 67964  97.2858  85.8402 0000763  64.4436 295.6908 15.75282747  4217
