CCSDS_OMM_VERS = 2.0
CREATION_DATE  = 
ORIGINATOR     = 

OBJECT_NAME    = STARLINK-36824
OBJECT_ID      = 2026-037X
CENTER_NAME    = EARTH
REF_FRAME      = TEME
TIME_SYSTEM    = UTC
MEAN_ELEMENT_THEORY = SGP/SGP4

EPOCH          = 2026-03-16T06:00:02.999808
MEAN_MOTION    = 15.73623156
ECCENTRICITY   = .00013635
INCLINATION    = 42.9996
RA_OF_ASC_NODE = 158.2345
ARG_OF_PERICENTER = 270.4721
MEAN_ANOMALY   = 24.7933

EPHEMERIS_TYPE = 0
CLASSIFICATION_TYPE = U
NORAD_CAT_ID   = 67953
ELEMENT_SET_NO = 999
REV_AT_EPOCH   = 425
BSTAR          = -.15130186E-1
MEAN_MOTION_DOT = -.1899332E-1
MEAN_MOTION_DDOT = 0

CCSDS_OMM_VERS = 2.0
CREATION_DATE  = 
ORIGINATOR     = 

OBJECT_NAME    = STARLINK-36869
OBJECT_ID      = 2026-037Y
CENTER_NAME    = EARTH
REF_FRAME      = TEME
TIME_SYSTEM    = UTC
MEAN_ELEMENT_THEORY = SGP/SGP4

EPOCH          = 2026-03-14T14:42:55.373760
MEAN_MOTION    = 15.82123317
ECCENTRICITY   = .00020266
INCLINATION    = 42.9984
RA_OF_ASC_NODE = 168.1671
ARG_OF_PERICENTER = 272.4890
MEAN_ANOMALY   = 87.5750

EPHEMERIS_TYPE = 0
CLASSIFICATION_TYPE = U
NORAD_CAT_ID   = 67954
ELEMENT_SET_NO = 999
REV_AT_EPOCH   = 403
BSTAR          = .28843037E-2
MEAN_MOTION_DOT = .658621E-2
MEAN_MOTION_DDOT = 0

CCSDS_OMM_VERS = 2.0
CREATION_DATE  = 
ORIGINATOR     = 

OBJECT_NAME    = STARLINK-36872
OBJECT_ID      = 2026-037Z
CENTER_NAME    = EARTH
REF_FRAME      = TEME
TIME_SYSTEM    = UTC
MEAN_ELEMENT_THEORY = SGP/SGP4

EPOCH          = 2026-03-16T06:04:26.260608
MEAN_MOTION    = 15.82153467
ECCENTRICITY   = .00018846
INCLINATION    = 42.9982
RA_OF_ASC_NODE = 158.0942
ARG_OF_PERICENTER = 321.2835
MEAN_ANOMALY   = 38.7902

EPHEMERIS_TYPE = 0
CLASSIFICATION_TYPE = U
NORAD_CAT_ID   = 67955
ELEMENT_SET_NO = 999
REV_AT_EPOCH   = 429
BSTAR          = .1562E-2
MEAN_MOTION_DOT = .34398E-2
MEAN_MOTION_DDOT = 0

CCSDS_OMM_VERS = 2.0
CREATION_DATE  = 
ORIGINATOR     = 

OBJECT_NAME    = STARLINK-36918
OBJECT_ID      = 2026-037AA
CENTER_NAME    = EARTH
REF_FRAME      = TEME
TIME_SYSTEM    = UTC
MEAN_ELEMENT_THEORY = SGP/SGP4

EPOCH          = 2026-03-16T06:03:21.525408
MEAN_MOTION    = 15.82141616
ECCENTRICITY   = .00025481
INCLINATION    = 42.9986
RA_OF_ASC_NODE = 158.0885
ARG_OF_PERICENTER = 230.6493
MEAN_ANOMALY   = 129.4153

EPHEMERIS_TYPE = 0
CLASSIFICATION_TYPE = U
NORAD_CAT_ID   = 67956
ELEMENT_SET_NO = 999
REV_AT_EPOCH   = 429
BSTAR          = .19349504E-2
MEAN_MOTION_DOT = .430334E-2
MEAN_MOTION_DDOT = 0

CCSDS_OMM_VERS = 2.0
CREATION_DATE  = 
ORIGINATOR     = 

OBJECT_NAME    = STARLINK-36829
OBJECT_ID      = 2026-037AB
CENTER_NAME    = EARTH
REF_FRAME      = TEME
TIME_SYSTEM    = UTC
MEAN_ELEMENT_THEORY = SGP/SGP4

EPOCH          = 2026-03-16T06:05:54.160512
MEAN_MOTION    = 15.80307409
ECCENTRICITY   = .0001589
INCLINATION    = 42.9985
RA_OF_ASC_NODE = 158.1036
ARG_OF_PERICENTER = 235.5740
MEAN_ANOMALY   = 124.4981

EPHEMERIS_TYPE = 0
CLASSIFICATION_TYPE = U
NORAD_CAT_ID   = 67957
ELEMENT_SET_NO = 999
REV_AT_EPOCH   = 429
BSTAR          = -.23361662E-2
MEAN_MOTION_DOT = -.432851E-2
MEAN_MOTION_DDOT = 0

CCSDS_OMM_VERS = 2.0
CREATION_DATE  = 
ORIGINATOR     = 

OBJECT_NAME    = STARLINK-36799
OBJECT_ID      = 2026-037AC
CENTER_NAME    = EARTH
REF_FRAME      = TEME
TIME_SYSTEM    = UTC
MEAN_ELEMENT_THEORY = SGP/SGP4

EPOCH          = 2026-03-16T06:02:16.576800
MEAN_MOTION    = 15.82179175
ECCENTRICITY   = .00011311
INCLINATION    = 42.9982
RA_OF_ASC_NODE = 158.0825
ARG_OF_PERICENTER = 285.0074
MEAN_ANOMALY   = 75.0673

EPHEMERIS_TYPE = 0
CLASSIFICATION_TYPE = U
NORAD_CAT_ID   = 67958
ELEMENT_SET_NO = 999
REV_AT_EPOCH   = 429
BSTAR          = .19074046E-2
MEAN_MOTION_DOT = .424679E-2
MEAN_MOTION_DDOT = 0

CCSDS_OMM_VERS = 2.0
CREATION_DATE  = 
ORIGINATOR     = 

OBJECT_NAME    = STARLINK-36834
OBJECT_ID      = 2026-037AD
CENTER_NAME    = EARTH
REF_FRAME      = TEME
TIME_SYSTEM    = UTC
MEAN_ELEMENT_THEORY = SGP/SGP4

EPOCH          = 2026-03-15T22:25:30.351648
MEAN_MOTION    = 15.82401295
ECCENTRICITY   = .00023475
INCLINATION    = 42.9988
RA_OF_ASC_NODE = 160.0045
ARG_OF_PERICENTER = 235.3783
MEAN_ANOMALY   = 124.6868

EPHEMERIS_TYPE = 0
CLASSIFICATION_TYPE = U
NORAD_CAT_ID   = 67959
ELEMENT_SET_NO = 999
REV_AT_EPOCH   = 424
BSTAR          = .25520815E-2
MEAN_MOTION_DOT = .585215E-2
MEAN_MOTION_DDOT = 0

CCSDS_OMM_VERS = 2.0
CREATION_DATE  = 
ORIGINATOR     = 

OBJECT_NAME    = STARLINK-36841
OBJECT_ID      = 2026-037AE
CENTER_NAME    = EARTH
REF_FRAME      = TEME
TIME_SYSTEM    = UTC
MEAN_ELEMENT_THEORY = SGP/SGP4

EPOCH          = 2026-03-15T22:26:39.737760
MEAN_MOTION    = 15.82179874
ECCENTRICITY   = .00025366
INCLINATION    = 42.9985
RA_OF_ASC_NODE = 160.0104
ARG_OF_PERICENTER = 26.2253
MEAN_ANOMALY   = 333.8747

EPHEMERIS_TYPE = 0
CLASSIFICATION_TYPE = U
NORAD_CAT_ID   = 67960
ELEMENT_SET_NO = 999
REV_AT_EPOCH   = 424
BSTAR          = .23061706E-2
MEAN_MOTION_DOT = .519298E-2
MEAN_MOTION_DDOT = 0

CCSDS_OMM_VERS = 2.0
CREATION_DATE  = 
ORIGINATOR     = 

OBJECT_NAME    = STARLINK-36912
OBJECT_ID      = 2026-038A
CENTER_NAME    = EARTH
REF_FRAME      = TEME
TIME_SYSTEM    = UTC
MEAN_ELEMENT_THEORY = SGP/SGP4

EPOCH          = 2026-03-16T06:38:50.127648
MEAN_MOTION    = 15.75197341
ECCENTRICITY   = .00020512
INCLINATION    = 97.2856
RA_OF_ASC_NODE = 85.9053
ARG_OF_PERICENTER = 98.3693
MEAN_ANOMALY   = 261.7805

EPHEMERIS_TYPE = 0
CLASSIFICATION_TYPE = U
NORAD_CAT_ID   = 67961
ELEMENT_SET_NO = 999
REV_AT_EPOCH   = 422
BSTAR          = .72605462E-3
MEAN_MOTION_DOT = .109606E-2
MEAN_MOTION_DDOT = 0

CCSDS_OMM_VERS = 2.0
CREATION_DATE  = 
ORIGINATOR     = 

OBJECT_NAME    = STARLINK-36881
OBJECT_ID      = 2026-038B
CENTER_NAME    = EARTH
REF_FRAME      = TEME
TIME_SYSTEM    = UTC
MEAN_ELEMENT_THEORY = SGP/SGP4

EPOCH          = 2026-03-16T06:37:18.036480
MEAN_MOTION    = 15.75248927
ECCENTRICITY   = .0001188
INCLINATION    = 97.2855
RA_OF_ASC_NODE = 85.9067
ARG_OF_PERICENTER = 78.7668
MEAN_ANOMALY   = 281.3731

EPHEMERIS_TYPE = 0
CLASSIFICATION_TYPE = U
NORAD_CAT_ID   = 67962
ELEMENT_SET_NO = 999
REV_AT_EPOCH   = 422
BSTAR          = .83762471E-3
MEAN_MOTION_DOT = .127004E-2
MEAN_MOTION_DDOT = 0

CCSDS_OMM_VERS = 2.0
CREATION_DATE  = 
ORIGINATOR     = 

OBJECT_NAME    = STARLINK-36357
OBJECT_ID      = 2026-038C
CENTER_NAME    = EARTH
REF_FRAME      = TEME
TIME_SYSTEM    = UTC
MEAN_ELEMENT_THEORY = SGP/SGP4

EPOCH          = 2026-03-16T06:34:15.903552
MEAN_MOTION    = 15.75091023
ECCENTRICITY   = .00012912
INCLINATION    = 97.2860
RA_OF_ASC_NODE = 85.9093
ARG_OF_PERICENTER = 79.3440
MEAN_ANOMALY   = 280.7970

EPHEMERIS_TYPE = 0
CLASSIFICATION_TYPE = U
NORAD_CAT_ID   = 67963
ELEMENT_SET_NO = 999
REV_AT_EPOCH   = 422
BSTAR          = -.10314516E-2
MEAN_MOTION_DOT = -.15065E-2
MEAN_MOTION_DDOT = 0

CCSDS_OMM_VERS = 2.0
CREATION_DATE  = 
ORIGINATOR     = 

OBJECT_NAME    = STARLINK-36349
OBJECT_ID      = 2026-038D
CENTER_NAME    = EARTH
REF_FRAME      = TEME
TIME_SYSTEM    = UTC
MEAN_ELEMENT_THEORY = SGP/SGP4

EPOCH          = 2026-03-16T05:04:48.180864
MEAN_MOTION    = 15.75282747
ECCENTRICITY   = .00007635
INCLINATION    = 97.2858
RA_OF_ASC_NODE = 85.8402
ARG_OF_PERICENTER = 64.4436
MEAN_ANOMALY   = 295.6908

EPHEMERIS_TYPE = 0
CLASSIFICATION_TYPE = U
NORAD_CAT_ID   = 67964
ELEMENT_SET_NO = 999
REV_AT_EPOCH   = 421
BSTAR          = .12641048E-2
MEAN_MOTION_DOT = .193529E-2
MEAN_MOTION_DDOT = 0

